IRIDIUM 112             
1 41925U 17003J   24247.84441754  .00001223  00000+0  42966-3 0  9995
2 41925  86.4025   0.4923 0002450  88.9425 271.2052 14.34224926399910
IRIDIUM 111             
1 41926U 17003K   24247.83173663  .00000923  00000+0  32265-3 0  9993
2 41926  86.4028   0.5538 0002183  83.8541 276.2903 14.34218851399890
IRIDIUM 113             
1 42803U 17039A   24247.88146935  .00000051  00000+0  11111-4 0  9994
2 42803  86.3947 234.2826 0002336  82.8265 277.3196 14.34218485377831
IRIDIUM 123             
1 42804U 17039B   24247.78341354  .00000080  00000+0  21656-4 0  9993
2 42804  86.3909 265.8270 0002093  89.5543 270.5892 14.34217694376586
IRIDIUM 115             
1 42806U 17039D   24247.89402042  .00000745  00000+0  21542-3 0  9990
2 42806  86.4474 234.1804 0002409  79.3973 280.7499 14.43272343380328
IRIDIUM 118             
1 42807U 17039E   24247.60581978  .00000035  00000+0  55815-5 0  9990
2 42807  86.3909 265.9025 0002268  95.9718 264.1736 14.34217199376550
IRIDIUM 117             
1 42808U 17039F   24247.48530941  .00000376  00000+0  12733-3 0  9999
2 42808  86.3909 265.9164 0002226  87.2916 272.8535 14.34220053376560
